STARLINK-1046
1 44751U 19074AQ  26092.28842534  .00109584  00000+0  21792-2 0  9996
2 44751  53.0519  98.4958 0002212 297.4418  62.6363 15.46117630352067
